LEMUR-2-CELIJO-SB-PK    
1 66781U 25276DW  26170.70492547  .00005277  00000+0  42853-3 0  9999
2 66781  97.5242 241.4003 0008593 126.6428 233.5587 15.00003232 23001
LEMUR-2-FINNIAN         
1 66782U 25276DX  26170.74792521  .00005594  00000+0  44925-3 0  9993
2 66782  97.5291 241.6582 0008909  81.8955 278.3279 15.00405471 20382
LEMUR-2-STARLIGHT       
1 66783U 25276DY  26170.70654688  .00004398  00000+0  36626-3 0  9991
2 66783  97.5251 241.2596 0015046 120.9064 239.3641 14.99062515 30573
LEMUR-2-TARTIFLETTE     
1 66784U 25276DZ  26170.70497858  .00003712  00000+0  30974-3 0  9995
2 66784  97.5256 241.2651 0014011 127.4604 232.7896 14.99087846 30577
LEMUR-2-VUKASIN         
1 66785U 25276EA  26170.76314754  .00004346  00000+0  35036-3 0  9993
2 66785  97.5297 241.6238 0006025 118.4030 241.7802 15.00389549 30538
LEMUR-2-HOTSPUR-TOM     
1 66786U 25276EB  26170.69772682  .00004483  00000+0  37393-3 0  9994
2 66786  97.5256 241.2390 0015356 120.1487 240.1261 14.98983750 30501
LEMUR-2-MYRA            
1 66787U 25276EC  26170.72813482  .00006697  00000+0  53748-3 0  9994
2 66787  97.5212 241.5259 0016883 133.2022 227.0615 15.00277738 30599
LEMUR-2 FIKRETDENGIZ    
1 67363U 26004A   26170.89077730  .00003200  00000+0  35134-3 0  9997
2 67363  97.8019 169.4070 0010288 125.4012 234.8167 14.88341622 23681
TWILIGHT-1 OBJECT B     
1 67364U 26004B   26170.51281747  .00001360  00000+0  15512-3 0  9995
2 67364  97.8061 169.0492 0010088 117.7730 242.4511 14.87708915 23636
LEMUR-2-MARIO-SOUSA     
1 67365U 26004C   26170.94127423  .00003838  00000+0  41821-3 0  9997
2 67365  97.7990 169.4529 0009862 125.7925 234.4210 14.88532364 23704
LEMUR-2-SONNENBLUME     
1 67367U 26004E   26170.46942116  .00002484  00000+0  27420-3 0  9995
2 67367  97.7984 168.9721 0009343 128.7374 231.4679 14.88325366 23632
LEMUR-2-WOBLER          
1 67368U 26004F   26170.93315091  .00003125  00000+0  34162-3 0  9998
2 67368  97.8039 169.5534 0009780 118.2058 242.0148 14.88531579 23704
LEMUR-2-GRAM-E-SUE      
1 67370U 26004H   26170.92388633  .00001774  00000+0  19676-3 0  9993
2 67370  97.7974 169.4345 0008347 128.0284 232.1687 14.88480894 23702
LEMUR-2-KATIE           
1 67387U 26004AA  26170.57249645  .00002233  00000+0  23688-3 0  9990
2 67387  97.8036 169.5560 0004833  88.1054 272.0717 14.90060068 23669
LEMUR-2-HCS-BAZUS       
1 67388U 26004AB  26170.57151530  .00003646  00000+0  38288-3 0  9997
2 67388  97.8025 169.5356 0004366  86.0649 274.1068 14.90089564 23663
