OBJECT_NAME,OBJECT_ID,EPOCH,MEAN_MOTION,ECCENTRICITY,INCLINATION,RA_OF_ASC_NODE,ARG_OF_PERICENTER,MEAN_ANOMALY,EPHEMERIS_TYPE,CLASSIFICATION_TYPE,NORAD_CAT_ID,ELEMENT_SET_NO,REV_AT_EPOCH,BSTAR,MEAN_MOTION_DOT,MEAN_MOTION_DDOT
LEMUR-2-CELIJO-SB-PK,2025-276DW,2026-06-19T16:55:05.560608,15.00003232,.00085934,97.5242,241.4003,126.6428,233.5587,0,U,66781,999,2300,.42853036E-3,.5277E-4,0
LEMUR-2-FINNIAN,2025-276DX,2026-06-19T17:57:00.738144,15.00405471,.00089091,97.5291,241.6582,81.8955,278.3279,0,U,66782,999,2038,.44925011E-3,.5594E-4,0
LEMUR-2-STARLIGHT,2025-276DY,2026-06-19T16:57:25.650432,14.99062515,.00150462,97.5251,241.2596,120.9064,239.3641,0,U,66783,999,3057,.36625903E-3,.4398E-4,0
LEMUR-2-TARTIFLETTE,2025-276DZ,2026-06-19T16:55:10.149312,14.99087846,.00140112,97.5256,241.2651,127.4604,232.7896,0,U,66784,999,3057,.30974098E-3,.3712E-4,0
LEMUR-2-VUKASIN,2025-276EA,2026-06-19T18:18:55.947456,15.00389549,.00060252,97.5297,241.6238,118.4030,241.7802,0,U,66785,999,3053,.35036287E-3,.4346E-4,0
LEMUR-2-HOTSPUR-TOM,2025-276EB,2026-06-19T16:44:43.597248,14.98983750,.00153566,97.5256,241.2390,120.1487,240.1261,0,U,66786,999,3050,.37392559E-3,.4483E-4,0
LEMUR-2-MYRA,2025-276EC,2026-06-19T17:28:30.848448,15.00277738,.00168837,97.5212,241.5259,133.2022,227.0615,0,U,66787,999,3059,.53747636E-3,.6697E-4,0
LEMUR-2 FIKRETDENGIZ,2026-004A,2026-06-19T21:22:43.158720,14.88341622,.00102883,97.8019,169.4070,125.4012,234.8167,0,U,67363,999,2368,.35134496E-3,.32E-4,0
TWILIGHT-1 OBJECT B,2026-004B,2026-06-19T12:18:27.429408,14.87708915,.00100887,97.8061,169.0492,117.7730,242.4511,0,U,67364,999,2363,.15512319E-3,.136E-4,0
LEMUR-2-MARIO-SOUSA,2026-004C,2026-06-19T22:35:26.093472,14.88532364,.00098626,97.7990,169.4529,125.7925,234.4210,0,U,67365,999,2370,.41821401E-3,.3838E-4,0
LEMUR-2-SONNENBLUME,2026-004E,2026-06-19T11:15:57.988224,14.88325366,.00093434,97.7984,168.9721,128.7374,231.4679,0,U,67367,999,2363,.27419711E-3,.2484E-4,0
LEMUR-2-WOBLER,2026-004F,2026-06-19T22:23:44.238624,14.88531579,.00097806,97.8039,169.5534,118.2058,242.0148,0,U,67368,999,2370,.34161715E-3,.3125E-4,0
LEMUR-2-GRAM-E-SUE,2026-004H,2026-06-19T22:10:23.778912,14.88480894,.00083475,97.7974,169.4345,128.0284,232.1687,0,U,67370,999,2370,.19675931E-3,.1774E-4,0
LEMUR-2-KATIE,2026-004AA,2026-06-19T13:44:23.693280,14.90060068,.00048333,97.8036,169.5560,88.1054,272.0717,0,U,67387,999,2366,.23688209E-3,.2233E-4,0
LEMUR-2-HCS-BAZUS,2026-004AB,2026-06-19T13:42:58.921920,14.90089564,.00043668,97.8025,169.5356,86.0649,274.1068,0,U,67388,999,2366,.38288178E-3,.3646E-4,0
